[{"OBJECT_NAME":"HULIANWANG DIGUI-49","OBJECT_ID":"2025-168A","EPOCH":"2026-03-06T20:12:19.873152","MEAN_MOTION":13.2933897,"ECCENTRICITY":0.0007424,"INCLINATION":50.0048,"RA_OF_ASC_NODE":333.0387,"ARG_OF_PERICENTER":156.9455,"MEAN_ANOMALY":203.1751,"EPHEMERIS_TYPE":0,"CLASSIFICATION_TYPE":"U","NORAD_CAT_ID":65106,"ELEMENT_SET_NO":999,"REV_AT_EPOCH":2907,"BSTAR":0.0001736,"MEAN_MOTION_DOT":-4.3e-7,"MEAN_MOTION_DDOT":0},{"OBJECT_NAME":"HULIANWANG DIGUI-50","OBJECT_ID":"2025-168B","EPOCH":"2026-03-06T20:00:13.842720","MEAN_MOTION":13.29339603,"ECCENTRICITY":0.0008402,"INCLINATION":50.0018,"RA_OF_ASC_NODE":332.9377,"ARG_OF_PERICENTER":142.9683,"MEAN_ANOMALY":217.177,"EPHEMERIS_TYPE":0,"CLASSIFICATION_TYPE":"U","NORAD_CAT_ID":65107,"ELEMENT_SET_NO":999,"REV_AT_EPOCH":2907,"BSTAR":0.00016424,"MEAN_MOTION_DOT":-4.8e-7,"MEAN_MOTION_DDOT":0},{"OBJECT_NAME":"HULIANWANG DIGUI-51","OBJECT_ID":"2025-168C","EPOCH":"2026-03-06T19:48:11.058336","MEAN_MOTION":13.29339882,"ECCENTRICITY":0.000976,"INCLINATION":50.0055,"RA_OF_ASC_NODE":332.9642,"ARG_OF_PERICENTER":142.9756,"MEAN_ANOMALY":217.1791,"EPHEMERIS_TYPE":0,"CLASSIFICATION_TYPE":"U","NORAD_CAT_ID":65108,"ELEMENT_SET_NO":999,"REV_AT_EPOCH":2907,"BSTAR":0.00017139,"MEAN_MOTION_DOT":-4.5e-7,"MEAN_MOTION_DDOT":0},{"OBJECT_NAME":"HULIANWANG DIGUI-52","OBJECT_ID":"2025-168D","EPOCH":"2026-03-06T19:36:19.279584","MEAN_MOTION":13.29338488,"ECCENTRICITY":0.0009617,"INCLINATION":50.0049,"RA_OF_ASC_NODE":332.9037,"ARG_OF_PERICENTER":155.8904,"MEAN_ANOMALY":204.242,"EPHEMERIS_TYPE":0,"CLASSIFICATION_TYPE":"U","NORAD_CAT_ID":65109,"ELEMENT_SET_NO":999,"REV_AT_EPOCH":2907,"BSTAR":0.00017576,"MEAN_MOTION_DOT":-4.2e-7,"MEAN_MOTION_DDOT":0},{"OBJECT_NAME":"HULIANWANG DIGUI-53","OBJECT_ID":"2025-168E","EPOCH":"2026-03-06T19:24:17.424864","MEAN_MOTION":13.29338402,"ECCENTRICITY":0.0008435,"INCLINATION":50.0056,"RA_OF_ASC_NODE":332.8821,"ARG_OF_PERICENTER":145.5485,"MEAN_ANOMALY":214.5936,"EPHEMERIS_TYPE":0,"CLASSIFICATION_TYPE":"U","NORAD_CAT_ID":65110,"ELEMENT_SET_NO":999,"REV_AT_EPOCH":2907,"BSTAR":0.00018615,"MEAN_MOTION_DOT":-3.8e-7,"MEAN_MOTION_DDOT":0},{"OBJECT_NAME":"HULIANWANG DIGUI-54","OBJECT_ID":"2025-168F","EPOCH":"2026-03-06T15:11:57.336000","MEAN_MOTION":13.29335648,"ECCENTRICITY":0.00100002,"INCLINATION":50.0007,"RA_OF_ASC_NODE":333.2008,"ARG_OF_PERICENTER":150.468,"MEAN_ANOMALY":209.6758,"EPHEMERIS_TYPE":0,"CLASSIFICATION_TYPE":"U","NORAD_CAT_ID":65111,"ELEMENT_SET_NO":999,"REV_AT_EPOCH":2905,"BSTAR":0.00020235834,"MEAN_MOTION_DOT":-3.0e-7,"MEAN_MOTION_DDOT":0},{"OBJECT_NAME":"HULIANWANG DIGUI-55","OBJECT_ID":"2025-168G","EPOCH":"2026-03-06T19:12:09.140256","MEAN_MOTION":13.29339135,"ECCENTRICITY":0.001131,"INCLINATION":50.0012,"RA_OF_ASC_NODE":332.7551,"ARG_OF_PERICENTER":146.7252,"MEAN_ANOMALY":213.4333,"EPHEMERIS_TYPE":0,"CLASSIFICATION_TYPE":"U","NORAD_CAT_ID":65112,"ELEMENT_SET_NO":999,"REV_AT_EPOCH":2907,"BSTAR":0.00019473,"MEAN_MOTION_DOT":-3.4e-7,"MEAN_MOTION_DDOT":0},{"OBJECT_NAME":"HULIANWANG DIGUI-56","OBJECT_ID":"2025-168H","EPOCH":"2026-03-06T19:00:09.099936","MEAN_MOTION":13.29338532,"ECCENTRICITY":0.0010997,"INCLINATION":50.0004,"RA_OF_ASC_NODE":332.6962,"ARG_OF_PERICENTER":168.6614,"MEAN_ANOMALY":191.4508,"EPHEMERIS_TYPE":0,"CLASSIFICATION_TYPE":"U","NORAD_CAT_ID":65113,"ELEMENT_SET_NO":999,"REV_AT_EPOCH":2907,"BSTAR":0.00019714,"MEAN_MOTION_DOT":-3.3e-7,"MEAN_MOTION_DDOT":0},{"OBJECT_NAME":"HULIANWANG DIGUI-57","OBJECT_ID":"2025-168J","EPOCH":"2026-03-06T20:24:44.101152","MEAN_MOTION":13.29335513,"ECCENTRICITY":0.0008753,"INCLINATION":50.0032,"RA_OF_ASC_NODE":332.3964,"ARG_OF_PERICENTER":159.2954,"MEAN_ANOMALY":200.8274,"EPHEMERIS_TYPE":0,"CLASSIFICATION_TYPE":"U","NORAD_CAT_ID":65114,"ELEMENT_SET_NO":999,"REV_AT_EPOCH":2909,"BSTAR":0.00019267,"MEAN_MOTION_DOT":-3.5e-7,"MEAN_MOTION_DDOT":0},{"OBJECT_NAME":"HULIANWANG DIGUI-58","OBJECT_ID":"2025-174A","EPOCH":"2026-03-06T19:45:14.697792","MEAN_MOTION":13.24421243,"ECCENTRICITY":0.0001267,"INCLINATION":86.4924,"RA_OF_ASC_NODE":286.6007,"ARG_OF_PERICENTER":88.792,"MEAN_ANOMALY":271.3359,"EPHEMERIS_TYPE":0,"CLASSIFICATION_TYPE":"U","NORAD_CAT_ID":65164,"ELEMENT_SET_NO":999,"REV_AT_EPOCH":2724,"BSTAR":4.6609e-5,"MEAN_MOTION_DOT":3.5e-7,"MEAN_MOTION_DDOT":0},{"OBJECT_NAME":"HULIANWANG DIGUI-59","OBJECT_ID":"2025-174B","EPOCH":"2026-03-06T19:56:07.067040","MEAN_MOTION":13.24421419,"ECCENTRICITY":0.0001252,"INCLINATION":86.4884,"RA_OF_ASC_NODE":286.5271,"ARG_OF_PERICENTER":87.9961,"MEAN_ANOMALY":272.1317,"EPHEMERIS_TYPE":0,"CLASSIFICATION_TYPE":"U","NORAD_CAT_ID":65165,"ELEMENT_SET_NO":999,"REV_AT_EPOCH":2724,"BSTAR":5.637e-5,"MEAN_MOTION_DOT":3.9e-7,"MEAN_MOTION_DDOT":0},{"OBJECT_NAME":"HULIANWANG DIGUI-60","OBJECT_ID":"2025-174C","EPOCH":"2026-03-06T20:06:57.450816","MEAN_MOTION":13.24421577,"ECCENTRICITY":0.000123,"INCLINATION":86.4916,"RA_OF_ASC_NODE":286.5945,"ARG_OF_PERICENTER":90.3019,"MEAN_ANOMALY":269.8256,"EPHEMERIS_TYPE":0,"CLASSIFICATION_TYPE":"U","NORAD_CAT_ID":65166,"ELEMENT_SET_NO":999,"REV_AT_EPOCH":2724,"BSTAR":5.0666e-5,"MEAN_MOTION_DOT":3.6e-7,"MEAN_MOTION_DDOT":0},{"OBJECT_NAME":"HULIANWANG DIGUI-61","OBJECT_ID":"2025-174D","EPOCH":"2026-03-06T20:17:55.257216","MEAN_MOTION":13.24420099,"ECCENTRICITY":0.000118,"INCLINATION":86.4924,"RA_OF_ASC_NODE":286.6147,"ARG_OF_PERICENTER":89.8066,"MEAN_ANOMALY":270.3203,"EPHEMERIS_TYPE":0,"CLASSIFICATION_TYPE":"U","NORAD_CAT_ID":65167,"ELEMENT_SET_NO":999,"REV_AT_EPOCH":2724,"BSTAR":6.537e-5,"MEAN_MOTION_DOT":4.3e-7,"MEAN_MOTION_DDOT":0},{"OBJECT_NAME":"HULIANWANG DIGUI-62","OBJECT_ID":"2025-174E","EPOCH":"2026-03-06T18:39:56.529504","MEAN_MOTION":13.24421473,"ECCENTRICITY":0.0001192,"INCLINATION":86.4866,"RA_OF_ASC_NODE":286.5262,"ARG_OF_PERICENTER":92.5047,"MEAN_ANOMALY":267.6224,"EPHEMERIS_TYPE":0,"CLASSIFICATION_TYPE":"U","NORAD_CAT_ID":65168,"ELEMENT_SET_NO":999,"REV_AT_EPOCH":2723,"BSTAR":0.00013077,"MEAN_MOTION_DOT":7.1e-7,"MEAN_MOTION_DDOT":0},{"OBJECT_NAME":"HULIANWANG DIGUI-63","OBJECT_ID":"2025-174F","EPOCH":"2026-03-06T20:39:35.267040","MEAN_MOTION":13.24421842,"ECCENTRICITY":0.0001204,"INCLINATION":86.4919,"RA_OF_ASC_NODE":286.6083,"ARG_OF_PERICENTER":89.4564,"MEAN_ANOMALY":270.6708,"EPHEMERIS_TYPE":0,"CLASSIFICATION_TYPE":"U","NORAD_CAT_ID":65169,"ELEMENT_SET_NO":999,"REV_AT_EPOCH":2724,"BSTAR":0.00013016,"MEAN_MOTION_DOT":7.1e-7,"MEAN_MOTION_DDOT":0},{"OBJECT_NAME":"HULIANWANG DIGUI-64","OBJECT_ID":"2025-174G","EPOCH":"2026-03-06T19:01:40.854144","MEAN_MOTION":13.24421881,"ECCENTRICITY":0.0001194,"INCLINATION":86.4878,"RA_OF_ASC_NODE":286.556,"ARG_OF_PERICENTER":91.9086,"MEAN_ANOMALY":268.2185,"EPHEMERIS_TYPE":0,"CLASSIFICATION_TYPE":"U","NORAD_CAT_ID":65170,"ELEMENT_SET_NO":999,"REV_AT_EPOCH":2723,"BSTAR":0.00012945,"MEAN_MOTION_DOT":7.0e-7,"MEAN_MOTION_DDOT":0}]
