HULIANWANG DIGUI-49     
1 65106U 25168A   26065.84189668 -.00000043  00000+0  17360-3 0  9996
2 65106  50.0048 333.0387 0007424 156.9455 203.1751 13.29338970 29078
HULIANWANG DIGUI-50     
1 65107U 25168B   26065.83349355 -.00000048  00000+0  16424-3 0  9992
2 65107  50.0018 332.9377 0008402 142.9683 217.1770 13.29339603 29078
HULIANWANG DIGUI-51     
1 65108U 25168C   26065.82512799 -.00000045  00000+0  17139-3 0  9997
2 65108  50.0055 332.9642 0009760 142.9756 217.1791 13.29339882 29076
HULIANWANG DIGUI-52     
1 65109U 25168D   26065.81688981 -.00000042  00000+0  17576-3 0  9996
2 65109  50.0049 332.9037 0009617 155.8904 204.2420 13.29338488 29074
HULIANWANG DIGUI-53     
1 65110U 25168E   26065.80853501 -.00000038  00000+0  18615-3 0  9999
2 65110  50.0056 332.8821 0008435 145.5485 214.5936 13.29338402 29073
HULIANWANG DIGUI-54     
1 65111U 25168F   26065.63330250 -.00000030  00000+0  20236-3 0  9996
2 65111  50.0007 333.2008 0010000 150.4680 209.6758 13.29335648 29059
HULIANWANG DIGUI-55     
1 65112U 25168G   26065.80010579 -.00000034  00000+0  19473-3 0  9990
2 65112  50.0012 332.7551 0011310 146.7252 213.4333 13.29339135 29070
HULIANWANG DIGUI-56     
1 65113U 25168H   26065.79177199 -.00000033  00000+0  19714-3 0  9998
2 65113  50.0004 332.6962 0010997 168.6614 191.4508 13.29338532 29071
HULIANWANG DIGUI-57     
1 65114U 25168J   26065.85051043 -.00000035  00000+0  19267-3 0  9990
2 65114  50.0032 332.3964 0008753 159.2954 200.8274 13.29335513 29095
HULIANWANG DIGUI-58     
1 65164U 25174A   26065.82308678  .00000035  00000+0  46609-4 0  9998
2 65164  86.4924 286.6007 0001267  88.7920 271.3359 13.24421243 27247
HULIANWANG DIGUI-59     
1 65165U 25174B   26065.83063735  .00000039  00000+0  56370-4 0  9992
2 65165  86.4884 286.5271 0001252  87.9961 272.1317 13.24421419 27243
HULIANWANG DIGUI-60     
1 65166U 25174C   26065.83816494  .00000036  00000+0  50666-4 0  9990
2 65166  86.4916 286.5945 0001230  90.3019 269.8256 13.24421577 27246
HULIANWANG DIGUI-61     
1 65167U 25174D   26065.84577844  .00000043  00000+0  65370-4 0  9991
2 65167  86.4924 286.6147 0001180  89.8066 270.3203 13.24420099 27247
HULIANWANG DIGUI-62     
1 65168U 25174E   26065.77773761  .00000071  00000+0  13077-3 0  9997
2 65168  86.4866 286.5262 0001192  92.5047 267.6224 13.24421473 27231
HULIANWANG DIGUI-63     
1 65169U 25174F   26065.86082485  .00000071  00000+0  13016-3 0  9997
2 65169  86.4919 286.6083 0001204  89.4564 270.6708 13.24421842 27248
HULIANWANG DIGUI-64     
1 65170U 25174G   26065.79283396  .00000070  00000+0  12945-3 0  9994
2 65170  86.4878 286.5560 0001194  91.9086 268.2185 13.24421881 27232
